{"fetched_at":"2026-07-20T18:28:58.427Z","source":"https://celestrak.org/NORAD/elements/gp.php?GROUP=qianfan&FORMAT=JSON","constellation":"qianfan","records":[{"OBJECT_NAME":"QIANFAN-65","OBJECT_ID":"2025-016L","EPOCH":"2026-07-20T06:05:28.801248","CLASSIFICATION_TYPE":"U","MEAN_MOTION":13.51030809,"ECCENTRICITY":0.00159917,"INCLINATION":88.9693,"RA_OF_ASC_NODE":80.2576,"ARG_OF_PERICENTER":70.162,"MEAN_ANOMALY":290.1253,"EPHEMERIS_TYPE":0,"NORAD_CAT_ID":62795,"ELEMENT_SET_NO":999,"REV_AT_EPOCH":7688,"BSTAR":0.00011051146,"MEAN_MOTION_DOT":8.4e-7,"MEAN_MOTION_DDOT":0},{"OBJECT_NAME":"QIANFAN-66","OBJECT_ID":"2025-016M","EPOCH":"2026-07-20T05:00:29.335104","CLASSIFICATION_TYPE":"U","MEAN_MOTION":13.51023954,"ECCENTRICITY":0.00170594,"INCLINATION":88.9713,"RA_OF_ASC_NODE":80.2756,"ARG_OF_PERICENTER":66.3609,"MEAN_ANOMALY":293.9331,"EPHEMERIS_TYPE":0,"NORAD_CAT_ID":62796,"ELEMENT_SET_NO":999,"REV_AT_EPOCH":7692,"BSTAR":0.00010466614,"MEAN_MOTION_DOT":8e-7,"MEAN_MOTION_DDOT":0},{"OBJECT_NAME":"QIANFAN-67","OBJECT_ID":"2025-016N","EPOCH":"2026-07-20T05:06:27.065664","CLASSIFICATION_TYPE":"U","MEAN_MOTION":13.51012624,"ECCENTRICITY":0.0017071,"INCLINATION":88.9703,"RA_OF_ASC_NODE":80.2791,"ARG_OF_PERICENTER":72.425,"MEAN_ANOMALY":287.8765,"EPHEMERIS_TYPE":0,"NORAD_CAT_ID":62797,"ELEMENT_SET_NO":999,"REV_AT_EPOCH":7689,"BSTAR":0.00011042286,"MEAN_MOTION_DOT":8.4e-7,"MEAN_MOTION_DDOT":0},{"OBJECT_NAME":"QIANFAN-68","OBJECT_ID":"2025-016P","EPOCH":"2026-07-20T04:54:17.714016","CLASSIFICATION_TYPE":"U","MEAN_MOTION":13.51025275,"ECCENTRICITY":0.00171397,"INCLINATION":88.9707,"RA_OF_ASC_NODE":80.333,"ARG_OF_PERICENTER":70.5576,"MEAN_ANOMALY":289.7426,"EPHEMERIS_TYPE":0,"NORAD_CAT_ID":62798,"ELEMENT_SET_NO":999,"REV_AT_EPOCH":7687,"BSTAR":0.000085091857,"MEAN_MOTION_DOT":6.7e-7,"MEAN_MOTION_DDOT":0},{"OBJECT_NAME":"QIANFAN-69","OBJECT_ID":"2025-016Q","EPOCH":"2026-07-20T05:18:00.776448","CLASSIFICATION_TYPE":"U","MEAN_MOTION":13.5101916,"ECCENTRICITY":0.0017876,"INCLINATION":88.9686,"RA_OF_ASC_NODE":80.1539,"ARG_OF_PERICENTER":71.7556,"MEAN_ANOMALY":288.5538,"EPHEMERIS_TYPE":0,"NORAD_CAT_ID":62799,"ELEMENT_SET_NO":999,"REV_AT_EPOCH":7691,"BSTAR":0.00009733572,"MEAN_MOTION_DOT":7.5e-7,"MEAN_MOTION_DDOT":0},{"OBJECT_NAME":"QIANFAN-70","OBJECT_ID":"2025-016R","EPOCH":"2026-07-20T05:41:49.509312","CLASSIFICATION_TYPE":"U","MEAN_MOTION":13.51017563,"ECCENTRICITY":0.00174097,"INCLINATION":88.9706,"RA_OF_ASC_NODE":80.3365,"ARG_OF_PERICENTER":63.2446,"MEAN_ANOMALY":297.0484,"EPHEMERIS_TYPE":0,"NORAD_CAT_ID":62800,"ELEMENT_SET_NO":999,"REV_AT_EPOCH":7687,"BSTAR":0.00010221696,"MEAN_MOTION_DOT":7.8e-7,"MEAN_MOTION_DDOT":0},{"OBJECT_NAME":"QIANFAN-71","OBJECT_ID":"2025-016S","EPOCH":"2026-07-20T05:36:04.231584","CLASSIFICATION_TYPE":"U","MEAN_MOTION":13.51021493,"ECCENTRICITY":0.00178009,"INCLINATION":88.97,"RA_OF_ASC_NODE":80.3032,"ARG_OF_PERICENTER":74.8708,"MEAN_ANOMALY":285.4411,"EPHEMERIS_TYPE":0,"NORAD_CAT_ID":62801,"ELEMENT_SET_NO":999,"REV_AT_EPOCH":7687,"BSTAR":0.000079282234,"MEAN_MOTION_DOT":6.3e-7,"MEAN_MOTION_DDOT":0},{"OBJECT_NAME":"QIANFAN-72","OBJECT_ID":"2025-016T","EPOCH":"2026-07-20T05:59:33.045792","CLASSIFICATION_TYPE":"U","MEAN_MOTION":13.51015042,"ECCENTRICITY":0.00210689,"INCLINATION":88.969,"RA_OF_ASC_NODE":80.2934,"ARG_OF_PERICENTER":81.2421,"MEAN_ANOMALY":279.1115,"EPHEMERIS_TYPE":0,"NORAD_CAT_ID":62802,"ELEMENT_SET_NO":999,"REV_AT_EPOCH":7686,"BSTAR":0.00010276837,"MEAN_MOTION_DOT":7.9e-7,"MEAN_MOTION_DDOT":0},{"OBJECT_NAME":"QIANFAN-73","OBJECT_ID":"2025-046A","EPOCH":"2026-07-20T06:38:24.353664","CLASSIFICATION_TYPE":"U","MEAN_MOTION":13.51015627,"ECCENTRICITY":0.0014618,"INCLINATION":88.9721,"RA_OF_ASC_NODE":297.2459,"ARG_OF_PERICENTER":200.6814,"MEAN_ANOMALY":159.3747,"EPHEMERIS_TYPE":0,"NORAD_CAT_ID":63159,"ELEMENT_SET_NO":999,"REV_AT_EPOCH":7705,"BSTAR":0.000018042722,"MEAN_MOTION_DOT":2.4e-7,"MEAN_MOTION_DDOT":0},{"OBJECT_NAME":"QIANFAN-74","OBJECT_ID":"2025-046B","EPOCH":"2026-07-20T06:14:56.107968","CLASSIFICATION_TYPE":"U","MEAN_MOTION":13.51023869,"ECCENTRICITY":0.00025395,"INCLINATION":88.9722,"RA_OF_ASC_NODE":297.1373,"ARG_OF_PERICENTER":104.3565,"MEAN_ANOMALY":255.7868,"EPHEMERIS_TYPE":0,"NORAD_CAT_ID":63160,"ELEMENT_SET_NO":999,"REV_AT_EPOCH":7711,"BSTAR":0.00016010541,"MEAN_MOTION_DOT":0.00000115,"MEAN_MOTION_DDOT":0},{"OBJECT_NAME":"QIANFAN-75","OBJECT_ID":"2025-046C","EPOCH":"2026-07-20T05:57:05.899680","CLASSIFICATION_TYPE":"U","MEAN_MOTION":13.51016047,"ECCENTRICITY":0.00155963,"INCLINATION":88.9723,"RA_OF_ASC_NODE":297.3752,"ARG_OF_PERICENTER":204.2468,"MEAN_ANOMALY":155.7951,"EPHEMERIS_TYPE":0,"NORAD_CAT_ID":63161,"ELEMENT_SET_NO":999,"REV_AT_EPOCH":7698,"BSTAR":0.00011150533,"MEAN_MOTION_DOT":8.4e-7,"MEAN_MOTION_DDOT":0},{"OBJECT_NAME":"QIANFAN-76","OBJECT_ID":"2025-046D","EPOCH":"2026-07-20T05:51:06.264864","CLASSIFICATION_TYPE":"U","MEAN_MOTION":13.51015382,"ECCENTRICITY":0.00131328,"INCLINATION":88.9723,"RA_OF_ASC_NODE":297.3556,"ARG_OF_PERICENTER":203.2232,"MEAN_ANOMALY":156.8327,"EPHEMERIS_TYPE":0,"NORAD_CAT_ID":63162,"ELEMENT_SET_NO":999,"REV_AT_EPOCH":7699,"BSTAR":0.00014762974,"MEAN_MOTION_DOT":0.00000107,"MEAN_MOTION_DDOT":0},{"OBJECT_NAME":"QIANFAN-77","OBJECT_ID":"2025-046E","EPOCH":"2026-07-20T04:59:05.629056","CLASSIFICATION_TYPE":"U","MEAN_MOTION":13.96223893,"ECCENTRICITY":0.00173464,"INCLINATION":88.9725,"RA_OF_ASC_NODE":293.5586,"ARG_OF_PERICENTER":113.916,"MEAN_ANOMALY":246.3836,"EPHEMERIS_TYPE":0,"NORAD_CAT_ID":63163,"ELEMENT_SET_NO":999,"REV_AT_EPOCH":7907,"BSTAR":0.00013298812,"MEAN_MOTION_DOT":0.00000197,"MEAN_MOTION_DDOT":0},{"OBJECT_NAME":"QIANFAN-78","OBJECT_ID":"2025-046F","EPOCH":"2026-07-20T06:50:26.988576","CLASSIFICATION_TYPE":"U","MEAN_MOTION":13.51010714,"ECCENTRICITY":0.00144125,"INCLINATION":88.9722,"RA_OF_ASC_NODE":297.2131,"ARG_OF_PERICENTER":206.0994,"MEAN_ANOMALY":153.9432,"EPHEMERIS_TYPE":0,"NORAD_CAT_ID":63164,"ELEMENT_SET_NO":999,"REV_AT_EPOCH":7707,"BSTAR":0.00015201449,"MEAN_MOTION_DOT":0.0000011,"MEAN_MOTION_DDOT":0},{"OBJECT_NAME":"QIANFAN-79","OBJECT_ID":"2025-046G","EPOCH":"2026-07-20T05:45:09.411264","CLASSIFICATION_TYPE":"U","MEAN_MOTION":13.51020744,"ECCENTRICITY":0.00142548,"INCLINATION":88.9726,"RA_OF_ASC_NODE":297.3333,"ARG_OF_PERICENTER":204.6286,"MEAN_ANOMALY":155.4186,"EPHEMERIS_TYPE":0,"NORAD_CAT_ID":63165,"ELEMENT_SET_NO":999,"REV_AT_EPOCH":7701,"BSTAR":0.00014649443,"MEAN_MOTION_DOT":0.00000107,"MEAN_MOTION_DDOT":0},{"OBJECT_NAME":"QIANFAN-80","OBJECT_ID":"2025-046H","EPOCH":"2026-07-20T06:09:00.181440","CLASSIFICATION_TYPE":"U","MEAN_MOTION":13.51017791,"ECCENTRICITY":0.0012938,"INCLINATION":88.9723,"RA_OF_ASC_NODE":297.0326,"ARG_OF_PERICENTER":208.4177,"MEAN_ANOMALY":151.627,"EPHEMERIS_TYPE":0,"NORAD_CAT_ID":63166,"ELEMENT_SET_NO":999,"REV_AT_EPOCH":7717,"BSTAR":0.00017333616,"MEAN_MOTION_DOT":0.00000124,"MEAN_MOTION_DDOT":0}]}
