QIANFAN-65              
1 62795U 25016L   26201.25380557  .00000084  00000+0  11051-3 0  9991
2 62795  88.9693  80.2576 0015991  70.1620 290.1253 13.51030809 76884
QIANFAN-66              
1 62796U 25016M   26201.20867286  .00000080  00000+0  10467-3 0  9992
2 62796  88.9713  80.2756 0017059  66.3609 293.9331 13.51023954 76925
QIANFAN-67              
1 62797U 25016N   26201.21281326  .00000084  00000+0  11042-3 0  9993
2 62797  88.9703  80.2791 0017071  72.4250 287.8765 13.51012624 76899
QIANFAN-68              
1 62798U 25016P   26201.20437169  .00000067  00000+0  85092-4 0  9999
2 62798  88.9707  80.3330 0017139  70.5576 289.7426 13.51025275 76878
QIANFAN-69              
1 62799U 25016Q   26201.22084232  .00000075  00000+0  97336-4 0  9994
2 62799  88.9686  80.1539 0017876  71.7556 288.5538 13.51019160 76915
QIANFAN-70              
1 62800U 25016R   26201.23737858  .00000078  00000+0  10222-3 0  9998
2 62800  88.9706  80.3365 0017409  63.2446 297.0484 13.51017563 76871
QIANFAN-71              
1 62801U 25016S   26201.23338231  .00000063  00000+0  79282-4 0  9997
2 62801  88.9700  80.3032 0017800  74.8708 285.4411 13.51021493 76879
QIANFAN-72              
1 62802U 25016T   26201.24968803  .00000079  00000+0  10277-3 0  9998
2 62802  88.9690  80.2934 0021068  81.2421 279.1115 13.51015042 76866
QIANFAN-73              
1 63159U 25046A   26201.27667076  .00000024  00000+0  18043-4 0  9998
2 63159  88.9721 297.2459 0014618 200.6814 159.3747 13.51015627 77056
QIANFAN-74              
1 63160U 25046B   26201.26037162  .00000115  00000+0  16011-3 0  9999
2 63160  88.9722 297.1373 0002539 104.3565 255.7868 13.51023869 77114
QIANFAN-75              
1 63161U 25046C   26201.24798495  .00000084  00000+0  11151-3 0  9996
2 63161  88.9723 297.3752 0015596 204.2468 155.7951 13.51016047 76984
QIANFAN-76              
1 63162U 25046D   26201.24382251  .00000107  00000+0  14763-3 0  9994
2 63162  88.9723 297.3556 0013132 203.2232 156.8327 13.51015382 76990
QIANFAN-77              
1 63163U 25046E   26201.20770404  .00000197  00000+0  13299-3 0  9994
2 63163  88.9725 293.5586 0017346 113.9160 246.3836 13.96223893 79071
QIANFAN-78              
1 63164U 25046F   26201.28503459  .00000110  00000+0  15201-3 0  9997
2 63164  88.9722 297.2131 0014412 206.0994 153.9432 13.51010714 77076
QIANFAN-79              
1 63165U 25046G   26201.23969226  .00000107  00000+0  14649-3 0  9992
2 63165  88.9726 297.3333 0014254 204.6286 155.4186 13.51020744 77019
QIANFAN-80              
1 63166U 25046H   26201.25625210  .00000124  00000+0  17334-3 0  9990
2 63166  88.9723 297.0326 0012938 208.4177 151.6270 13.51017791 77171
